CELESTIS-17 & SHERPA-FX1
1 47486U 21006CB  26068.64311433  .00007207  00000+0  24301-3 0  9993
2 47486  97.2397 112.1052 0006630 178.1385 181.9882 15.30994801284065
STARLINK-35542          
1 66064U 25235G   26068.71973560  .00047021  00000+0  15886-2 0  9992
2 66064  53.1570 245.3063 0001241  97.4324 262.6818 15.30221861 22922
